SL-16 R/B               
1 25400U 98043G   25344.62328048  .00000153  00000+0  83021-4 0  9992
2 25400  98.8121 292.4295 0008799 273.6590  86.3583 14.26024791426292
SL-16 R/B               
1 25407U 98045B   25344.43378994 -.00000176  00000+0 -64972-4 0  9996
2 25407  71.0121   9.2766 0007047 181.4236 178.6869 14.16175566414461
ISS (ZARYA)             
1 25544U 98067A   25344.54178148  .00015517  00000+0  28443-3 0  9998
2 25544  51.6308 153.3620 0003360 230.7092 129.3599 15.49478601542510
CZ-4B R/B               
1 25732U 99025C   25344.41113177  .00000115  00000+0  76517-4 0  9993
2 25732  98.6772  25.7432 0036220 240.8643 129.6286 14.18242690375515
OKEAN-O                 
1 25860U 99039A   25344.62632844  .00001275  00000+0  17480-3 0  9991
2 25860  97.9604  40.3462 0000805  94.2024 265.9280 14.80155882421215
SL-16 R/B               
1 25861U 99039B   25344.42083093  .00001038  00000+0  13885-3 0  9998
2 25861  98.0128  38.5718 0014745 182.1760 177.9390 14.81581311423648
DELTA 2 R/B             
1 25876U 99041E   25344.58932498  .00001605  00000+0  29790-3 0  9998
2 25876  51.7616 297.0302 0504735  85.4278 280.4104 14.11392009350442
HELIOS 1B               
1 25977U 99064A   25344.65059150  .00003453  00000+0  38942-3 0  9990
2 25977  98.1750 239.2542 0001819  45.4246 314.7117 14.87268565672026
TERRA                   
1 25994U 99068A   25344.62836113  .00000731  00000+0  15854-3 0  9995
2 25994  97.9752  36.3904 0003596  98.6615  54.3230 14.60898090382075
SL-16 R/B               
1 26070U 00006B   25344.28473867 -.00000003  00000+0  22606-4 0  9997
2 26070  71.0033 285.8189 0018397 312.0128  47.9428 14.15810705335903
TITAN 4B R/B            
1 26474U 00047B   25344.55535760  .00005737  00000+0  36627-3 0  9996
2 26474  67.9902 290.9898 0039091 147.1541 213.2049 15.08753821379468
ENVISAT                 
1 27386U 02009A   25344.63262509  .00000253  00000+0  95950-4 0  9999
2 27386  98.3595 295.4265 0001139  81.9983  91.5469 14.38998032246364
